INMARSAT 4-F2           
1 28899U 05044A   26190.81106506 -.00000253  00000+0  00000+0 0  9993
2 28899   5.1235  43.6494 0002898  59.0214 260.5450  1.00271241 75745
GSAT-8                  
1 37605U 11022A   26191.22136356  .00000093  00000+0  00000+0 0  9994
2 37605   2.1876  81.5454 0002647 165.7862 175.5805  1.00271522 53445
LUCH-5A                 
1 37951U 11074B   26190.88708487 -.00000046  00000+0  00000+0 0  9995
2 37951   8.8083  73.4735 0002566  57.5000 283.1588  1.00272587 53273
SES-5                   
1 38652U 12036A   26190.85501885  .00000046  00000+0  00000+0 0  9992
2 38652   0.0450 319.9907 0002058 149.7218 130.8584  1.00272424 44683
GSAT-10                 
1 38779U 12051B   26191.15561429 -.00000153  00000+0  00000+0 0  9993
2 38779   0.1055 265.9328 0007471 186.8596 334.2821  1.00272033 50325
LUCH-5B                 
1 38977U 12061A   26191.01138831 -.00000135  00000+0  00000+0 0  9996
2 38977  10.5296  49.6499 0003731 144.0727  82.0682  1.00271225 49839
ASTRA 5B                
1 39617U 14011B   26191.28629823  .00000148  00000+0  00000+0 0  9993
2 39617   0.0627 313.7291 0001790 162.7970 298.2453  1.00271751 44890
LUCH-5V                 
1 39727U 14023A   26190.65886551 -.00000259  00000+0  00000+0 0  9995
2 39727   5.1849  69.5197 0002677  71.0216 118.8925  1.00266729 44581
GSAT-15                 
1 41028U 15065A   26191.30016497 -.00000247  00000+0  00000+0 0  9993
2 41028   0.0133 334.0803 0003670 116.2719  39.4391  1.00271341 39031
EUTELSAT 117 WEST B     
1 41589U 16038B   26191.25856476 -.00000001  00000+0  00000+0 0  9997
2 41589   0.0062 158.6562 0000353 302.6110 163.0106  1.00273613 36890
SES-15                  
1 42709U 17026A   26191.33871162  .00000071  00000+0  00000+0 0  9994
2 42709   0.0258 325.5146 0000313 127.4028 188.1175  1.00266831  7663
QZS-2 (MICHIBIKI-2)     
1 42738U 17028A   26190.46017160 -.00000092  00000+0  00000+0 0  9995
2 42738  39.3944 242.8253 0758066 269.5337  83.0316  1.00278207  7859
QZS-3 (MICHIBIKI-3)     
1 42917U 17048A   26191.30692499 -.00000337  00000+0  00000+0 0  9996
2 42917   0.0737 218.9036 0002526 264.9421  41.8841  1.00274625 32495
